{
    "links": {
        "self": "http://www.neowsapp.com/rest/v1/neo/3775248?api_key=iIulBulltgU6a56xZRHN4H3l9WmuAYTsLGpBGhQ2"
    },
    "id": "3775248",
    "neo_reference_id": "3775248",
    "name": "(2017 MC)",
    "designation": "2017 MC",
    "nasa_jpl_url": "http://ssd.jpl.nasa.gov/sbdb.cgi?sstr=3775248",
    "absolute_magnitude_h": 21.1,
    "estimated_diameter": {
        "kilometers": {
            "estimated_diameter_min": 0.160160338,
            "estimated_diameter_max": 0.358129403
        },
        "meters": {
            "estimated_diameter_min": 160.1603379786,
            "estimated_diameter_max": 358.1294030194
        },
        "miles": {
            "estimated_diameter_min": 0.0995189894,
            "estimated_diameter_max": 0.2225312253
        },
        "feet": {
            "estimated_diameter_min": 525.4604432536,
            "estimated_diameter_max": 1174.9652706022
        }
    },
    "is_potentially_hazardous_asteroid": true,
    "close_approach_data": [
        {
            "close_approach_date": "1916-11-11",
            "close_approach_date_full": "1916-Nov-11 14:18",
            "epoch_date_close_approach": -1676886120000,
            "relative_velocity": {
                "kilometers_per_second": "8.1452805825",
                "kilometers_per_hour": "29323.0100968881",
                "miles_per_hour": "18220.1781349247"
            },
            "miss_distance": {
                "astronomical": "1.6889815099",
                "lunar": "657.0138073511",
                "kilometers": "252668036.350423913",
                "miles": "157000637.5718514794"
            },
            "orbiting_body": "Juptr"
        },
        {
            "close_approach_date": "2011-12-10",
            "close_approach_date_full": "2011-Dec-10 12:45",
            "epoch_date_close_approach": 1323521100000,
            "relative_velocity": {
                "kilometers_per_second": "6.4180078516",
                "kilometers_per_hour": "23104.8282658075",
                "miles_per_hour": "14356.4417632736"
            },
            "miss_distance": {
                "astronomical": "1.3895357229",
                "lunar": "540.5293962081",
                "kilometers": "207871584.434750223",
                "miles": "129165413.0879621574"
            },
            "orbiting_body": "Juptr"
        },
        {
            "close_approach_date": "2017-06-06",
            "close_approach_date_full": "2017-Jun-06 18:17",
            "epoch_date_close_approach": 1496773020000,
            "relative_velocity": {
                "kilometers_per_second": "15.4349745369",
                "kilometers_per_hour": "55565.90833275",
                "miles_per_hour": "34526.4945415357"
            },
            "miss_distance": {
                "astronomical": "0.0371063796",
                "lunar": "14.4343816644",
                "kilometers": "5551035.351571452",
                "miles": "3449253.4234599576"
            },
            "orbiting_body": "Earth"
        },
        {
            "close_approach_date": "2190-02-27",
            "close_approach_date_full": "2190-Feb-27 02:34",
            "epoch_date_close_approach": 6947519640000,
            "relative_velocity": {
                "kilometers_per_second": "6.4172048848",
                "kilometers_per_hour": "23101.9375851527",
                "miles_per_hour": "14354.64560673"
            },
            "miss_distance": {
                "astronomical": "1.8369177665",
                "lunar": "714.5610111685",
                "kilometers": "274798985.233557355",
                "miles": "170752171.540727299"
            },
            "orbiting_body": "Juptr"
        }
    ],
    "orbital_data": {
        "orbit_id": "12",
        "orbit_determination_date": "2017-07-12 06:17:47",
        "first_observation_date": "2017-06-16",
        "last_observation_date": "2017-07-01",
        "data_arc_in_days": 15,
        "observations_used": 133,
        "orbit_uncertainty": "8",
        "minimum_orbit_intersection": ".00782037",
        "jupiter_tisserand_invariant": "3.136",
        "epoch_osculation": "2457924.5",
        "eccentricity": ".6392009382686605",
        "semi_major_axis": "2.444257008888273",
        "inclination": "17.12575493279772",
        "ascending_node_longitude": "258.4420645765502",
        "orbital_period": "1395.785655168745",
        "perihelion_distance": ".8818856354371393",
        "perihelion_argument": "313.5542655314192",
        "aphelion_distance": "4.006628382339407",
        "perihelion_time": "2457878.400372020117",
        "mean_anomaly": "11.88998182586388",
        "mean_motion": ".2579192576359279",
        "equinox": "J2000",
        "orbit_class": {
            "orbit_class_type": "APO",
            "orbit_class_description": "Near-Earth asteroid orbits which cross the Earth’s orbit similar to that of 1862 Apollo",
            "orbit_class_range": "a (semi-major axis) > 1.0 AU; q (perihelion) < 1.017 AU"
        }
    },
    "is_sentry_object": false
}